{"type":"FeatureCollection","features":[{"type":"Feature","properties":{"name":"East End","type":"District"},"geometry":{"type":"MultiPolygon","coordinates":[[[[-62.957,18.274],[-62.948,18.297],[-62.926,18.29],[-62.957,18.274]]],[[[-63.013,18.272],[-62.973,18.276],[-62.995,18.235],[-62.995,18.256],[-63.013,18.272]]]]}},{"type":"Feature","properties":{"name":"Stoney Ground","type":"District"},"geometry":{"type":"Polygon","coordinates":[[[-63.023,18.27],[-62.995,18.256],[-63.044,18.232],[-63.026,18.253],[-63.023,18.27]]]}},{"type":"Feature","properties":{"name":"North Side","type":"District"},"geometry":{"type":"Polygon","coordinates":[[[-63.061,18.246],[-63.038,18.268],[-63.023,18.27],[-63.048,18.235],[-63.061,18.246]]]}},{"type":"Feature","properties":{"name":"The Valley","type":"District"},"geometry":{"type":"Polygon","coordinates":[[[-63.073,18.231],[-63.061,18.246],[-63.044,18.232],[-63.047,18.227],[-63.073,18.231]]]}},{"type":"Feature","properties":{"name":"North Hill","type":"District"},"geometry":{"type":"Polygon","coordinates":[[[-63.076,18.216],[-63.073,18.231],[-63.047,18.227],[-63.076,18.216]]]}},{"type":"Feature","properties":{"name":"Sandy Ground","type":"District"},"geometry":{"type":"Polygon","coordinates":[[[-63.097,18.212],[-63.086,18.218],[-63.078,18.226],[-63.076,18.216],[-63.097,18.212]]]}},{"type":"Feature","properties":{"name":"South Hill","type":"District"},"geometry":{"type":"Polygon","coordinates":[[[-63.123,18.208],[-63.069,18.22],[-63.061,18.219],[-63.123,18.184],[-63.123,18.208]]]}},{"type":"Feature","properties":{"name":"West End","type":"District"},"geometry":{"type":"Polygon","coordinates":[[[-63.123,18.184],[-63.151,18.169],[-63.168,18.169],[-63.123,18.208],[-63.123,18.184]]]}},{"type":"Feature","properties":{"name":"Blowing Point","type":"District"},"geometry":{"type":"Polygon","coordinates":[[[-63.061,18.199],[-63.1,18.176],[-63.114,18.19],[-63.073,18.212],[-63.061,18.199]]]}},{"type":"Feature","properties":{"name":"The Farrington","type":"District"},"geometry":{"type":"Polygon","coordinates":[[[-63.047,18.227],[-63.038,18.213],[-63.061,18.199],[-63.047,18.227]]]}},{"type":"Feature","properties":{"name":"Sandy Hill","type":"District"},"geometry":{"type":"Polygon","coordinates":[[[-62.995,18.256],[-63.012,18.22],[-63.03,18.215],[-63.023,18.251],[-62.995,18.256]]]}},{"type":"Feature","properties":{"name":"Island Harbour","type":"District"},"geometry":{"type":"Polygon","coordinates":[[[-63.007,18.273],[-62.995,18.275],[-63.0,18.267],[-63.007,18.273]]]}},{"type":"Feature","properties":{"name":null,"type":null},"geometry":{"type":"MultiPolygon","coordinates":[[[[-63.174,18.262],[-63.169,18.265],[-63.168,18.262],[-63.174,18.262]]],[[[-63.19,18.269],[-63.179,18.267],[-63.192,18.269],[-63.19,18.269]]],[[[-63.252,18.273],[-63.263,18.282],[-63.236,18.283],[-63.252,18.273]]],[[[-63.428,18.593],[-63.429,18.601],[-63.424,18.6],[-63.428,18.593]]]]}},{"type":"Feature","properties":{"name":"George Hill","type":"District"},"geometry":{"type":"Polygon","coordinates":[[[-63.073,18.212],[-63.061,18.219],[-63.072,18.203],[-63.073,18.212]]]}},{"type":"Feature","properties":{"name":"The Quarter","type":"District"},"geometry":{"type":"Polygon","coordinates":[[[-63.034,18.228],[-63.047,18.227],[-63.029,18.235],[-63.034,18.228]]]}}]}