{"type":"FeatureCollection","features":[{"type":"Feature","properties":{"name":"Western","type":null},"geometry":{"type":"Polygon","coordinates":[[[-170.693,-14.315],[-170.749,-14.375],[-170.831,-14.319],[-170.789,-14.295],[-170.722,-14.289],[-170.714,-14.314],[-170.693,-14.315]]]}},{"type":"Feature","properties":{"name":"Eastern","type":null},"geometry":{"type":"Polygon","coordinates":[[[-170.722,-14.289],[-170.698,-14.261],[-170.661,-14.252],[-170.567,-14.259],[-170.584,-14.278],[-170.659,-14.285],[-170.693,-14.315],[-170.714,-14.314],[-170.722,-14.289]]]}},{"type":"Feature","properties":{"name":"Manu's","type":null},"geometry":{"type":"MultiPolygon","coordinates":[[[[-169.543,-14.237],[-169.444,-14.231],[-169.447,-14.256],[-169.495,-14.257],[-169.504,-14.271],[-169.523,-14.271],[-169.543,-14.237]]],[[[-169.676,-14.175],[-169.658,-14.169],[-169.636,-14.177],[-169.66,-14.189],[-169.676,-14.175]]]]}},{"type":"Feature","properties":{"name":"Rose Atoll","type":null},"geometry":{"type":"Polygon","coordinates":[[[-168.162,-14.533],[-168.173,-14.524],[-168.16,-14.521],[-168.162,-14.533]]]}},{"type":"Feature","properties":{"name":"Swain's Island","type":null},"geometry":{"type":"Polygon","coordinates":[[[-171.086,-11.051],[-171.073,-11.062],[-171.082,-11.066],[-171.086,-11.051]]]}}]}