{"type":"FeatureCollection","features":[{"type":"Feature","properties":{"name":"Saint Paul","type":"Parish"},"geometry":{"type":"Polygon","coordinates":[[[-61.733,17.064],[-61.737,16.989],[-61.777,17.019],[-61.804,17.007],[-61.815,17.048],[-61.733,17.064]]]}},{"type":"Feature","properties":{"name":"Saint Philip","type":"Parish"},"geometry":{"type":"Polygon","coordinates":[[[-61.715,17.093],[-61.672,17.091],[-61.668,17.079],[-61.695,17.079],[-61.672,17.058],[-61.686,17.029],[-61.726,17.038],[-61.733,17.064],[-61.715,17.093]]]}},{"type":"Feature","properties":{"name":"Saint Peter","type":"Parish"},"geometry":{"type":"Polygon","coordinates":[[[-61.774,17.06],[-61.743,17.142],[-61.709,17.128],[-61.73,17.114],[-61.715,17.093],[-61.733,17.064],[-61.774,17.06]]]}},{"type":"Feature","properties":{"name":"Saint George","type":"Parish"},"geometry":{"type":"Polygon","coordinates":[[[-61.793,17.165],[-61.756,17.114],[-61.774,17.071],[-61.796,17.084],[-61.805,17.123],[-61.793,17.165]]]}},{"type":"Feature","properties":{"name":"Saint John","type":"Parish"},"geometry":{"type":"Polygon","coordinates":[[[-61.827,17.083],[-61.894,17.101],[-61.842,17.124],[-61.84,17.16],[-61.793,17.165],[-61.805,17.123],[-61.774,17.06],[-61.815,17.048],[-61.82,17.059],[-61.835,17.043],[-61.827,17.083]]]}},{"type":"Feature","properties":{"name":"Saint Mary","type":"Parish"},"geometry":{"type":"Polygon","coordinates":[[[-61.804,17.007],[-61.852,17.008],[-61.884,17.026],[-61.882,17.079],[-61.854,17.095],[-61.827,17.083],[-61.835,17.043],[-61.82,17.059],[-61.804,17.007]]]}},{"type":"Feature","properties":{"name":"Barbuda","type":"Dependency"},"geometry":{"type":"Polygon","coordinates":[[[-61.795,17.576],[-61.852,17.587],[-61.857,17.601],[-61.874,17.691],[-61.873,17.711],[-61.831,17.614],[-61.831,17.68],[-61.856,17.701],[-61.838,17.728],[-61.818,17.703],[-61.831,17.696],[-61.784,17.696],[-61.754,17.669],[-61.728,17.588],[-61.736,17.554],[-61.771,17.546],[-61.795,17.576]]]}},{"type":"Feature","properties":{"name":"Redonda","type":"Dependency"},"geometry":{"type":"Polygon","coordinates":[[[-62.348,16.934],[-62.343,16.935],[-62.347,16.932],[-62.348,16.934]]]}}]}