{"type":"FeatureCollection","features":[{"type":"Feature","properties":{"name":"Hamilton","type":null},"geometry":{"type":"MultiPolygon","coordinates":[[[[-64.707,32.321],[-64.705,32.336],[-64.698,32.326],[-64.707,32.321]]],[[[-64.695,32.34],[-64.713,32.343],[-64.742,32.333],[-64.722,32.353],[-64.695,32.34]]],[[[-64.74,32.317],[-64.74,32.324],[-64.731,32.323],[-64.74,32.317]]]]}},{"type":"Feature","properties":{"name":"Smith's","type":null},"geometry":{"type":"Polygon","coordinates":[[[-64.748,32.317],[-64.714,32.329],[-64.707,32.321],[-64.738,32.302],[-64.748,32.317]]]}},{"type":"Feature","properties":{"name":"Devonshire","type":null},"geometry":{"type":"Polygon","coordinates":[[[-64.78,32.303],[-64.748,32.317],[-64.738,32.302],[-64.761,32.286],[-64.78,32.303]]]}},{"type":"Feature","properties":{"name":"Pembroke","type":null},"geometry":{"type":"Polygon","coordinates":[[[-64.78,32.303],[-64.805,32.293],[-64.811,32.308],[-64.78,32.303]]]}},{"type":"Feature","properties":{"name":"City of Hamilton","type":null},"geometry":{"type":"Polygon","coordinates":[[[-64.784,32.297],[-64.795,32.29],[-64.794,32.296],[-64.784,32.297]]]}},{"type":"Feature","properties":{"name":"Paget","type":null},"geometry":{"type":"MultiPolygon","coordinates":[[[[-64.797,32.279],[-64.767,32.296],[-64.761,32.286],[-64.788,32.265],[-64.797,32.279]]],[[[-64.808,32.286],[-64.8,32.283],[-64.811,32.282],[-64.808,32.286]]]]}},{"type":"Feature","properties":{"name":"Warwick","type":null},"geometry":{"type":"MultiPolygon","coordinates":[[[[-64.833,32.26],[-64.797,32.279],[-64.788,32.265],[-64.815,32.254],[-64.833,32.26]]],[[[-64.812,32.29],[-64.83,32.282],[-64.833,32.287],[-64.812,32.29]]]]}},{"type":"Feature","properties":{"name":"Southampton","type":null},"geometry":{"type":"Polygon","coordinates":[[[-64.863,32.269],[-64.858,32.255],[-64.815,32.254],[-64.861,32.249],[-64.88,32.266],[-64.863,32.269]]]}},{"type":"Feature","properties":{"name":"Sandys","type":null},"geometry":{"type":"Polygon","coordinates":[[[-64.88,32.266],[-64.886,32.283],[-64.869,32.309],[-64.858,32.298],[-64.872,32.276],[-64.849,32.268],[-64.88,32.266]]]}},{"type":"Feature","properties":{"name":"Saint George's","type":null},"geometry":{"type":"MultiPolygon","coordinates":[[[[-64.722,32.353],[-64.676,32.389],[-64.648,32.368],[-64.656,32.35],[-64.691,32.364],[-64.722,32.353]],[[-64.681,32.376],[-64.668,32.374],[-64.672,32.381],[-64.681,32.376]]],[[[-64.695,32.34],[-64.678,32.335],[-64.698,32.326],[-64.695,32.34]]]]}},{"type":"Feature","properties":{"name":"City of Saint George","type":null},"geometry":{"type":"Polygon","coordinates":[[[-64.681,32.376],[-64.668,32.374],[-64.677,32.37],[-64.681,32.376]]]}}]}