{"type":"FeatureCollection","features":[{"type":"Feature","properties":{"name":"Cayman Islands","type":null},"geometry":{"type":"MultiPolygon","coordinates":[[[[-79.872,19.705],[-79.746,19.758],[-79.727,19.737],[-79.894,19.68],[-79.872,19.705]]],[[[-80.038,19.704],[-79.964,19.705],[-80.078,19.654],[-80.113,19.659],[-80.038,19.704]]],[[[-81.212,19.348],[-81.1,19.347],[-81.087,19.31],[-81.135,19.291],[-81.233,19.289],[-81.266,19.266],[-81.387,19.264],[-81.398,19.274],[-81.386,19.339],[-81.417,19.37],[-81.408,19.39],[-81.376,19.389],[-81.35,19.302],[-81.303,19.309],[-81.294,19.334],[-81.273,19.328],[-81.286,19.368],[-81.212,19.348]]]]}}]}