{"type":"FeatureCollection","features":[{"type":"Feature","properties":{"name":"Northern Cyprus","type":null},"geometry":{"type":"MultiPolygon","coordinates":[[[[34.012,35.064],[33.913,35.066],[33.921,35.081],[33.876,35.119],[33.867,35.067],[33.843,35.057],[33.824,35.067],[33.766,35.032],[33.74,35.047],[33.708,35.029],[33.715,35.067],[33.679,35.056],[33.671,35.031],[33.614,35.046],[33.579,35.035],[33.541,35.073],[33.535,35.057],[33.494,35.057],[33.477,35.003],[33.466,35.014],[33.477,35.095],[33.414,35.199],[33.315,35.162],[33.157,35.185],[33.12,35.16],[33.096,35.17],[33.031,35.149],[32.947,35.103],[32.877,35.1],[32.855,35.079],[32.795,35.127],[32.732,35.143],[32.711,35.175],[32.745,35.178],[32.828,35.149],[32.893,35.175],[32.929,35.233],[32.935,35.271],[32.92,35.398],[33.07,35.359],[33.428,35.329],[33.66,35.359],[33.784,35.417],[33.835,35.41],[34.036,35.471],[34.131,35.511],[34.182,35.554],[34.32,35.586],[34.593,35.692],[34.573,35.644],[34.138,35.415],[34.059,35.324],[33.952,35.312],[33.912,35.26],[33.9,35.164],[34.012,35.064]]],[[[32.641,35.187],[32.626,35.165],[32.603,35.174],[32.619,35.185],[32.641,35.187]]]]}}]}