{"type":"FeatureCollection","features":[{"type":"Feature","properties":{"name":"Saint Patrick","type":"Parish"},"geometry":{"type":"Polygon","coordinates":[[[-61.254,15.333],[-61.257,15.285],[-61.277,15.25],[-61.318,15.243],[-61.346,15.212],[-61.357,15.254],[-61.343,15.274],[-61.3,15.324],[-61.254,15.333]]]}},{"type":"Feature","properties":{"name":"Saint David","type":"Parish"},"geometry":{"type":"Polygon","coordinates":[[[-61.269,15.51],[-61.263,15.408],[-61.249,15.401],[-61.254,15.333],[-61.308,15.317],[-61.328,15.346],[-61.335,15.405],[-61.317,15.445],[-61.275,15.476],[-61.269,15.51]]]}},{"type":"Feature","properties":{"name":"Saint Andrew","type":"Parish"},"geometry":{"type":"Polygon","coordinates":[[[-61.449,15.633],[-61.385,15.588],[-61.357,15.598],[-61.308,15.579],[-61.269,15.51],[-61.275,15.476],[-61.317,15.445],[-61.344,15.473],[-61.393,15.482],[-61.449,15.633]]]}},{"type":"Feature","properties":{"name":"Saint John","type":"Parish"},"geometry":{"type":"Polygon","coordinates":[[[-61.484,15.53],[-61.489,15.545],[-61.462,15.573],[-61.489,15.579],[-61.469,15.634],[-61.449,15.633],[-61.44,15.595],[-61.419,15.578],[-61.408,15.503],[-61.484,15.53]]]}},{"type":"Feature","properties":{"name":"Saint Peter","type":"Parish"},"geometry":{"type":"Polygon","coordinates":[[[-61.455,15.466],[-61.472,15.481],[-61.48,15.534],[-61.408,15.503],[-61.455,15.466]]]}},{"type":"Feature","properties":{"name":"Saint Joseph","type":"Parish"},"geometry":{"type":"Polygon","coordinates":[[[-61.416,15.39],[-61.455,15.466],[-61.431,15.489],[-61.406,15.494],[-61.323,15.458],[-61.335,15.405],[-61.416,15.39]]]}},{"type":"Feature","properties":{"name":"Saint Paul","type":"Parish"},"geometry":{"type":"Polygon","coordinates":[[[-61.394,15.314],[-61.416,15.39],[-61.335,15.405],[-61.328,15.346],[-61.394,15.314]]]}},{"type":"Feature","properties":{"name":"Saint George","type":"Parish"},"geometry":{"type":"Polygon","coordinates":[[[-61.373,15.26],[-61.394,15.314],[-61.328,15.346],[-61.311,15.335],[-61.317,15.292],[-61.357,15.254],[-61.373,15.26]]]}},{"type":"Feature","properties":{"name":"Saint Luke","type":"Parish"},"geometry":{"type":"Polygon","coordinates":[[[-61.373,15.237],[-61.373,15.26],[-61.357,15.254],[-61.356,15.244],[-61.373,15.237]]]}},{"type":"Feature","properties":{"name":"Saint Mark","type":"Parish"},"geometry":{"type":"Polygon","coordinates":[[[-61.346,15.212],[-61.374,15.205],[-61.373,15.237],[-61.356,15.244],[-61.346,15.212]]]}}]}