{"type":"FeatureCollection","features":[{"type":"Feature","properties":{"name":"Kosrae","type":null},"geometry":{"type":"Polygon","coordinates":[[[163.026,5.341],[163.047,5.324],[163.019,5.273],[162.916,5.287],[162.924,5.321],[162.991,5.375],[163.026,5.369],[163.026,5.341]]]}},{"type":"Feature","properties":{"name":"Pohnpei","type":null},"geometry":{"type":"MultiPolygon","coordinates":[[[[158.291,6.938],[158.305,6.924],[158.325,6.931],[158.338,6.879],[158.304,6.866],[158.314,6.809],[158.244,6.788],[158.18,6.802],[158.16,6.828],[158.16,6.89],[158.133,6.892],[158.126,6.907],[158.132,6.941],[158.178,6.956],[158.181,6.979],[158.277,6.965],[158.303,6.943],[158.291,6.938]]],[[[157.946,6.723],[157.939,6.727],[157.949,6.732],[157.946,6.723]]],[[[157.164,5.779],[157.159,5.778],[157.158,5.779],[157.164,5.779]]],[[[154.879,3.752],[154.877,3.768],[154.892,3.779],[154.894,3.763],[154.879,3.752]]],[[[154.799,0.924],[154.818,0.922],[154.802,0.918],[154.799,0.924]]],[[[154.784,0.975],[154.792,0.963],[154.778,0.969],[154.784,0.975]]],[[[154.789,3.792],[154.792,3.777],[154.774,3.766],[154.771,3.781],[154.789,3.792]]],[[[154.727,0.961],[154.722,0.969],[154.733,0.967],[154.727,0.961]]],[[[154.3,8.175],[154.313,8.138],[154.296,8.106],[154.238,8.143],[154.26,8.18],[154.3,8.175]]]]}},{"type":"Feature","properties":{"name":"Chuuk","type":null},"geometry":{"type":"MultiPolygon","coordinates":[[[[153.668,5.286],[153.685,5.31],[153.711,5.315],[153.708,5.305],[153.668,5.286]]],[[[151.863,7.466],[151.884,7.464],[151.918,7.459],[151.856,7.425],[151.863,7.466]]],[[[151.857,7.317],[151.853,7.354],[151.855,7.37],[151.866,7.351],[151.857,7.317]]],[[[151.589,7.384],[151.636,7.387],[151.65,7.369],[151.645,7.336],[151.568,7.343],[151.623,7.366],[151.589,7.384]]],[[[150.407,8.576],[150.405,8.586],[150.409,8.585],[150.407,8.576]]],[[[150.118,8.976],[150.124,8.986],[150.133,8.986],[150.131,8.981],[150.118,8.976]]],[[[149.669,8.575],[149.668,8.604],[149.687,8.616],[149.689,8.607],[149.669,8.575]]],[[[149.316,6.697],[149.317,6.71],[149.323,6.719],[149.325,6.707],[149.316,6.697]]],[[[149.186,7.372],[149.181,7.381],[149.188,7.38],[149.186,7.372]]]]}},{"type":"Feature","properties":{"name":"Yap","type":null},"geometry":{"type":"MultiPolygon","coordinates":[[[[140.515,9.761],[140.522,9.775],[140.533,9.772],[140.515,9.761]]],[[[138.194,9.589],[138.184,9.544],[138.219,9.549],[138.202,9.521],[138.178,9.5],[138.157,9.526],[138.144,9.521],[138.068,9.412],[138.073,9.47],[138.113,9.521],[138.126,9.566],[138.141,9.574],[138.15,9.541],[138.164,9.576],[138.194,9.589]]]]}}]}