{"type":"FeatureCollection","features":[{"type":"Feature","properties":{"name":"Saint George","type":"Parish"},"geometry":{"type":"Polygon","coordinates":[[[-61.683,12.025],[-61.695,12.003],[-61.73,12.016],[-61.791,12.008],[-61.75,12.036],[-61.751,12.11],[-61.686,12.111],[-61.677,12.085],[-61.69,12.08],[-61.696,12.041],[-61.683,12.025]]]}},{"type":"Feature","properties":{"name":"Saint David","type":"Parish"},"geometry":{"type":"Polygon","coordinates":[[[-61.625,12.069],[-61.632,12.044],[-61.674,12.022],[-61.696,12.041],[-61.69,12.08],[-61.658,12.09],[-61.625,12.069]]]}},{"type":"Feature","properties":{"name":"Saint Andrew","type":"Parish"},"geometry":{"type":"Polygon","coordinates":[[[-61.603,12.177],[-61.614,12.08],[-61.625,12.069],[-61.677,12.085],[-61.688,12.122],[-61.656,12.179],[-61.603,12.177]]]}},{"type":"Feature","properties":{"name":"Saint Patrick","type":"Parish"},"geometry":{"type":"Polygon","coordinates":[[[-61.682,12.223],[-61.628,12.237],[-61.606,12.223],[-61.603,12.177],[-61.656,12.179],[-61.682,12.223]]]}},{"type":"Feature","properties":{"name":"Saint Mark","type":"Parish"},"geometry":{"type":"Polygon","coordinates":[[[-61.715,12.184],[-61.682,12.223],[-61.656,12.179],[-61.663,12.159],[-61.715,12.184]]]}},{"type":"Feature","properties":{"name":"Saint John","type":"Parish"},"geometry":{"type":"Polygon","coordinates":[[[-61.751,12.11],[-61.715,12.184],[-61.663,12.159],[-61.686,12.111],[-61.751,12.11]]]}},{"type":"Feature","properties":{"name":"Carriacou and Petite Martinique","type":"Dependency"},"geometry":{"type":"Polygon","coordinates":[[[-61.428,12.455],[-61.496,12.44],[-61.489,12.482],[-61.467,12.476],[-61.428,12.53],[-61.428,12.455]]]}}]}