{"type":"FeatureCollection","features":[{"type":"Feature","properties":{"name":"Isle of Man","type":null},"geometry":{"type":"MultiPolygon","coordinates":[[[[-4.612,54.057],[-4.704,54.085],[-4.766,54.059],[-4.79,54.071],[-4.77,54.077],[-4.771,54.097],[-4.737,54.125],[-4.71,54.221],[-4.598,54.277],[-4.531,54.366],[-4.442,54.404],[-4.351,54.414],[-4.376,54.348],[-4.358,54.318],[-4.325,54.31],[-4.312,54.287],[-4.399,54.222],[-4.391,54.195],[-4.55,54.101],[-4.591,54.091],[-4.612,54.057]]],[[[-4.81,54.06],[-4.812,54.04],[-4.831,54.05],[-4.828,54.055],[-4.81,54.06]]]]}}]}