{"type":"FeatureCollection","features":[{"type":"Feature","properties":{"name":"Cocos (Keeling) Islands","type":"Province"},"geometry":{"type":"MultiPolygon","coordinates":[[[[96.902,-12.2],[96.889,-12.187],[96.916,-12.162],[96.92,-12.185],[96.902,-12.2]]],[[[96.863,-12.182],[96.845,-12.198],[96.831,-12.18],[96.822,-12.127],[96.836,-12.182],[96.863,-12.182]]]]}},{"type":"Feature","properties":{"name":"Christmas Island","type":null},"geometry":{"type":"Polygon","coordinates":[[[105.704,-10.431],[105.715,-10.437],[105.695,-10.565],[105.679,-10.566],[105.664,-10.518],[105.585,-10.516],[105.594,-10.454],[105.655,-10.47],[105.704,-10.431]]]}}]}