{"type":"FeatureCollection","features":[{"type":"Feature","properties":{"name":"British Indian Ocean Territory","type":null},"geometry":{"type":"MultiPolygon","coordinates":[[[[72.44,-7.227],[72.495,-7.296],[72.474,-7.34],[72.479,-7.362],[72.468,-7.341],[72.487,-7.302],[72.44,-7.227]]],[[[72.433,-7.425],[72.48,-7.365],[72.481,-7.391],[72.433,-7.432],[72.426,-7.323],[72.358,-7.268],[72.433,-7.316],[72.433,-7.425]]],[[[72.221,-5.328],[72.231,-5.319],[72.228,-5.325],[72.221,-5.328]]],[[[71.966,-5.227],[71.962,-5.23],[71.963,-5.227],[71.966,-5.227]]],[[[71.772,-5.433],[71.765,-5.434],[71.762,-5.432],[71.772,-5.433]]],[[[71.76,-5.237],[71.769,-5.234],[71.766,-5.239],[71.76,-5.237]]],[[[71.737,-5.285],[71.747,-5.27],[71.745,-5.279],[71.737,-5.285]]],[[[71.35,-6.653],[71.362,-6.653],[71.355,-6.656],[71.35,-6.653]]],[[[71.338,-6.196],[71.347,-6.182],[71.361,-6.177],[71.351,-6.2],[71.338,-6.196]]],[[[71.268,-6.383],[71.261,-6.378],[71.267,-6.37],[71.268,-6.383]]]]}}]}