{"type":"FeatureCollection","features":[{"type":"Feature","properties":{"name":"Baykonur lease in Qyzylorda","type":null},"geometry":{"type":"Polygon","coordinates":[[[63.384,46.391],[63.611,46.358],[63.755,46.297],[63.834,46.241],[63.941,46.101],[63.964,46.02],[63.964,45.936],[63.941,45.856],[63.897,45.782],[63.796,45.687],[63.71,45.636],[63.501,45.574],[63.266,45.574],[63.058,45.636],[62.9,45.748],[62.846,45.818],[62.813,45.895],[62.804,46.02],[62.827,46.101],[62.871,46.175],[63.013,46.297],[63.21,46.372],[63.384,46.391]]]}}]}