{"type":"FeatureCollection","features":[{"type":"Feature","properties":{"name":"Kiribati","type":null},"geometry":{"type":"MultiPolygon","coordinates":[[[[176.772,-2.608],[176.813,-2.614],[176.851,-2.654],[176.827,-2.656],[176.772,-2.608]]],[[[176.396,-1.32],[176.445,-1.374],[176.464,-1.436],[176.396,-1.32]]],[[[175.977,-1.285],[176.023,-1.363],[176.018,-1.388],[175.984,-1.367],[176.018,-1.374],[176.006,-1.343],[175.942,-1.285],[175.977,-1.285]]],[[[175.993,-2.51],[175.977,-2.498],[175.973,-2.49],[175.993,-2.51]]],[[[175.591,-1.874],[175.6,-1.895],[175.586,-1.922],[175.586,-1.871],[175.552,-1.819],[175.591,-1.874]]],[[[175.059,-1.436],[175.061,-1.532],[175.038,-1.552],[175.013,-1.549],[175.021,-1.5],[175.045,-1.484],[175.019,-1.52],[175.028,-1.541],[175.058,-1.507],[175.038,-1.436],[175.059,-1.436]]],[[[174.744,-1.148],[174.779,-1.264],[174.756,-1.258],[174.747,-1.186],[174.717,-1.135],[174.744,-1.148]]],[[[174.463,-0.648],[174.498,-0.789],[174.497,-0.805],[174.483,-0.819],[174.472,-0.802],[174.483,-0.813],[174.498,-0.795],[174.477,-0.74],[174.463,-0.648]]],[[[174.381,-0.593],[174.464,-0.645],[174.437,-0.641],[174.381,-0.593]]],[[[173.832,0.449],[173.917,0.399],[173.922,0.38],[173.832,0.436],[173.805,0.434],[173.832,0.449]]],[[[173.621,0.133],[173.61,0.143],[173.638,0.195],[173.606,0.216],[173.629,0.219],[173.641,0.192],[173.621,0.133]]],[[[173.29,2.034],[173.266,2.044],[173.269,2.011],[173.258,1.997],[173.26,2.043],[173.278,2.059],[173.318,1.977],[173.304,1.962],[173.257,1.975],[173.261,1.993],[173.264,1.978],[173.308,1.973],[173.29,2.034]]],[[[173.079,1.36],[173.011,1.337],[173.085,1.367],[173.161,1.375],[173.143,1.38],[173.153,1.387],[173.172,1.374],[173.163,1.357],[173.079,1.36]]],[[[173.076,0.966],[173.061,0.914],[172.991,0.834],[173.047,0.902],[173.072,0.963],[173.026,0.998],[173.01,1.004],[173.004,0.99],[172.99,1.024],[173.076,0.966]]],[[[173.027,1.81],[173.038,1.742],[173.029,1.716],[172.993,1.712],[173.024,1.721],[173.035,1.744],[173.027,1.81]]],[[[172.935,1.943],[173.023,1.821],[172.938,1.923],[172.935,1.943]]],[[[172.983,0.831],[172.99,0.834],[172.99,0.825],[172.983,0.831]]],[[[172.983,1.531],[172.969,1.538],[172.949,1.627],[172.963,1.621],[172.983,1.531]]],[[[172.976,0.84],[172.982,0.831],[172.969,0.84],[172.976,0.84]]],[[[172.962,3.142],[172.969,3.128],[172.887,3.1],[172.944,3.127],[172.962,3.142]]],[[[172.75,3.032],[172.771,3.024],[172.829,3.064],[172.887,3.073],[172.88,3.052],[172.844,3.06],[172.77,3.011],[172.75,3.032]]],[[[169.539,-0.875],[169.523,-0.861],[169.545,-0.848],[169.555,-0.866],[169.539,-0.875]]],[[[-151.808,-11.386],[-151.781,-11.455],[-151.801,-11.461],[-151.82,-11.421],[-151.808,-11.386]]],[[[-155.012,-4.047],[-154.94,-4.032],[-154.953,-4.095],[-155.011,-4.061],[-155.012,-4.047]]],[[[-157.191,1.764],[-157.179,1.718],[-157.246,1.713],[-157.287,1.75],[-157.411,1.782],[-157.528,1.862],[-157.566,1.864],[-157.581,1.88],[-157.578,1.908],[-157.521,1.928],[-157.545,1.902],[-157.537,1.866],[-157.429,1.839],[-157.475,1.881],[-157.452,1.876],[-157.447,1.901],[-157.412,1.858],[-157.42,1.929],[-157.408,1.921],[-157.406,1.943],[-157.395,1.936],[-157.382,1.902],[-157.355,1.948],[-157.478,2.018],[-157.499,2.002],[-157.509,2.025],[-157.496,2.034],[-157.424,2.02],[-157.386,1.99],[-157.31,1.973],[-157.34,1.93],[-157.348,1.861],[-157.191,1.764]]],[[[-159.285,3.875],[-159.25,3.82],[-159.263,3.799],[-159.309,3.785],[-159.353,3.799],[-159.361,3.819],[-159.295,3.806],[-159.287,3.838],[-159.335,3.871],[-159.353,3.909],[-159.394,3.889],[-159.367,3.84],[-159.41,3.862],[-159.406,3.903],[-159.377,3.933],[-159.342,3.926],[-159.32,3.879],[-159.285,3.875]]],[[[-160.41,4.709],[-160.401,4.723],[-160.379,4.713],[-160.395,4.705],[-160.41,4.709]]],[[[-171.626,-2.869],[-171.713,-2.822],[-171.664,-2.835],[-171.633,-2.862],[-171.627,-2.856],[-171.667,-2.793],[-171.715,-2.773],[-171.722,-2.786],[-171.715,-2.759],[-171.65,-2.797],[-171.63,-2.827],[-171.624,-2.856],[-171.626,-2.869]]],[[[-172.223,-4.506],[-172.202,-4.521],[-172.174,-4.513],[-172.203,-4.532],[-172.227,-4.519],[-172.23,-4.497],[-172.2,-4.493],[-172.223,-4.506]]]]}},{"type":"Feature","properties":{"name":null,"type":null},"geometry":{"type":"MultiPolygon","coordinates":[[[[-155.933,-5.609],[-155.88,-5.609],[-155.86,-5.625],[-155.906,-5.635],[-155.933,-5.609]]],[[[-171.092,-3.145],[-171.09,-3.121],[-171.085,-3.111],[-171.092,-3.145]]],[[[-171.26,-4.444],[-171.245,-4.441],[-171.23,-4.461],[-171.26,-4.465],[-171.26,-4.444]]],[[[-174.517,-4.684],[-174.502,-4.697],[-174.522,-4.684],[-174.517,-4.684]]],[[[-174.502,-4.688],[-174.514,-4.676],[-174.543,-4.66],[-174.524,-4.664],[-174.502,-4.688]]],[[[-174.542,-4.673],[-174.528,-4.684],[-174.534,-4.681],[-174.542,-4.673]]]]}}]}