{"type":"FeatureCollection","features":[{"type":"Feature","properties":{"name":"Saint Paul Charlestown","type":"Parish"},"geometry":{"type":"Polygon","coordinates":[[[-62.622,17.128],[-62.626,17.141],[-62.579,17.145],[-62.592,17.133],[-62.622,17.128]]]}},{"type":"Feature","properties":{"name":"Saint John Figtree","type":"Parish"},"geometry":{"type":"Polygon","coordinates":[[[-62.566,17.101],[-62.612,17.104],[-62.622,17.128],[-62.579,17.145],[-62.566,17.101]]]}},{"type":"Feature","properties":{"name":"Saint George Gingerland","type":"Parish"},"geometry":{"type":"Polygon","coordinates":[[[-62.537,17.138],[-62.544,17.109],[-62.566,17.101],[-62.579,17.145],[-62.537,17.138]]]}},{"type":"Feature","properties":{"name":"Saint James Windward","type":"Parish"},"geometry":{"type":"Polygon","coordinates":[[[-62.613,17.189],[-62.599,17.203],[-62.56,17.197],[-62.537,17.138],[-62.579,17.145],[-62.613,17.189]]]}},{"type":"Feature","properties":{"name":"Saint Thomas Lowland","type":"Parish"},"geometry":{"type":"Polygon","coordinates":[[[-62.626,17.141],[-62.619,17.183],[-62.613,17.189],[-62.579,17.145],[-62.626,17.141]]]}},{"type":"Feature","properties":{"name":"Saint Paul Capesterre","type":"Parish"},"geometry":{"type":"Polygon","coordinates":[[[-62.857,17.38],[-62.822,17.41],[-62.808,17.367],[-62.841,17.382],[-62.857,17.38]]]}},{"type":"Feature","properties":{"name":"Saint Anne Sandy Point","type":"Parish"},"geometry":{"type":"Polygon","coordinates":[[[-62.832,17.33],[-62.861,17.362],[-62.857,17.38],[-62.808,17.367],[-62.832,17.33]]]}},{"type":"Feature","properties":{"name":"Saint Thomas Middle Island","type":"Parish"},"geometry":{"type":"Polygon","coordinates":[[[-62.772,17.298],[-62.832,17.33],[-62.808,17.367],[-62.754,17.331],[-62.772,17.298]]]}},{"type":"Feature","properties":{"name":"Trinity Palmetto Point","type":"Parish"},"geometry":{"type":"Polygon","coordinates":[[[-62.724,17.292],[-62.772,17.298],[-62.754,17.331],[-62.738,17.33],[-62.724,17.292]]]}},{"type":"Feature","properties":{"name":"Saint George Basseterre","type":"Parish"},"geometry":{"type":"Polygon","coordinates":[[[-62.681,17.299],[-62.637,17.258],[-62.625,17.225],[-62.66,17.225],[-62.67,17.263],[-62.724,17.292],[-62.734,17.319],[-62.681,17.299]]]}},{"type":"Feature","properties":{"name":"Saint Peter Basseterre","type":"Parish"},"geometry":{"type":"Polygon","coordinates":[[[-62.732,17.339],[-62.695,17.333],[-62.681,17.299],[-62.734,17.319],[-62.732,17.339]]]}},{"type":"Feature","properties":{"name":"Saint Mary Cayon","type":"Parish"},"geometry":{"type":"Polygon","coordinates":[[[-62.731,17.365],[-62.704,17.342],[-62.745,17.331],[-62.741,17.354],[-62.731,17.365]]]}},{"type":"Feature","properties":{"name":"Christ Church Nichola Town","type":"Parish"},"geometry":{"type":"Polygon","coordinates":[[[-62.769,17.387],[-62.731,17.365],[-62.745,17.331],[-62.788,17.35],[-62.769,17.387]]]}},{"type":"Feature","properties":{"name":"Saint John Capesterre","type":"Parish"},"geometry":{"type":"Polygon","coordinates":[[[-62.822,17.41],[-62.769,17.387],[-62.788,17.35],[-62.815,17.374],[-62.822,17.41]]]}}]}