{"type":"FeatureCollection","features":[{"type":"Feature","properties":{"name":"Gros Islet","type":"Quarter"},"geometry":{"type":"Polygon","coordinates":[[[-60.98,14.044],[-60.948,14.102],[-60.914,14.106],[-60.919,14.088],[-60.901,14.073],[-60.928,14.053],[-60.936,14.018],[-60.98,14.044]]]}},{"type":"Feature","properties":{"name":"Castries","type":"Quarter"},"geometry":{"type":"Polygon","coordinates":[[[-61.027,13.987],[-60.98,14.044],[-60.936,14.018],[-60.961,13.879],[-60.981,13.893],[-60.992,13.978],[-61.027,13.987]]]}},{"type":"Feature","properties":{"name":"Anse-la-Raye","type":"Quarter"},"geometry":{"type":"Polygon","coordinates":[[[-61.067,13.909],[-61.027,13.987],[-60.992,13.978],[-60.981,13.924],[-60.991,13.866],[-61.067,13.909]]]}},{"type":"Feature","properties":{"name":"Soufrière","type":"Quarter"},"geometry":{"type":"Polygon","coordinates":[[[-61.068,13.792],[-61.079,13.88],[-61.067,13.909],[-61.041,13.905],[-61.011,13.871],[-60.991,13.866],[-60.981,13.893],[-60.961,13.879],[-60.964,13.845],[-61.068,13.792]]]}},{"type":"Feature","properties":{"name":"Choiseul","type":"Quarter"},"geometry":{"type":"Polygon","coordinates":[[[-61.019,13.756],[-61.068,13.792],[-60.982,13.836],[-60.981,13.831],[-61.019,13.756]]]}},{"type":"Feature","properties":{"name":"Laborie","type":"Quarter"},"geometry":{"type":"Polygon","coordinates":[[[-60.967,13.731],[-61.019,13.756],[-60.981,13.831],[-60.964,13.776],[-60.967,13.731]]]}},{"type":"Feature","properties":{"name":"Vieux Fort","type":"Quarter"},"geometry":{"type":"Polygon","coordinates":[[[-60.918,13.774],[-60.955,13.715],[-60.982,13.836],[-60.975,13.839],[-60.918,13.774]]]}},{"type":"Feature","properties":{"name":"Micoud","type":"Quarter"},"geometry":{"type":"Polygon","coordinates":[[[-60.892,13.833],[-60.918,13.774],[-60.975,13.839],[-60.964,13.845],[-60.892,13.833]]]}},{"type":"Feature","properties":{"name":"Praslin","type":"Quarter"},"geometry":{"type":"Polygon","coordinates":[[[-60.89,13.908],[-60.892,13.833],[-60.964,13.845],[-60.961,13.9],[-60.89,13.908]]]}},{"type":"Feature","properties":{"name":"Dennery","type":"Quarter"},"geometry":{"type":"Polygon","coordinates":[[[-60.883,13.981],[-60.89,13.908],[-60.961,13.9],[-60.941,13.979],[-60.883,13.981]]]}},{"type":"Feature","properties":{"name":"Dauphin","type":"Quarter"},"geometry":{"type":"Polygon","coordinates":[[[-60.901,14.073],[-60.883,13.981],[-60.941,13.979],[-60.928,14.053],[-60.901,14.073]]]}}]}