{"type":"FeatureCollection","features":[{"type":"Feature","properties":{"name":"Triesen","type":null},"geometry":{"type":"Polygon","coordinates":[[[9.588,47.063],[9.533,47.056],[9.522,47.087],[9.503,47.095],[9.512,47.129],[9.533,47.125],[9.561,47.076],[9.583,47.087],[9.588,47.063]]]}},{"type":"Feature","properties":{"name":"Schaan","type":null},"geometry":{"type":"MultiPolygon","coordinates":[[[[9.563,47.148],[9.614,47.111],[9.576,47.108],[9.563,47.148]]],[[[9.605,47.078],[9.588,47.063],[9.583,47.087],[9.598,47.091],[9.605,47.078]]],[[[9.531,47.195],[9.548,47.161],[9.505,47.169],[9.508,47.153],[9.496,47.156],[9.486,47.197],[9.531,47.195]]]]}},{"type":"Feature","properties":{"name":"Triesenberg","type":null},"geometry":{"type":"MultiPolygon","coordinates":[[[[9.614,47.111],[9.609,47.081],[9.605,47.078],[9.592,47.111],[9.614,47.111]]],[[[9.561,47.089],[9.527,47.131],[9.548,47.161],[9.574,47.124],[9.561,47.089]]]]}},{"type":"Feature","properties":{"name":"Balzers","type":null},"geometry":{"type":"MultiPolygon","coordinates":[[[[9.567,47.161],[9.582,47.155],[9.61,47.122],[9.563,47.148],[9.567,47.161]]],[[[9.554,47.083],[9.568,47.088],[9.571,47.076],[9.554,47.083]]],[[[9.533,47.056],[9.477,47.064],[9.476,47.073],[9.503,47.095],[9.522,47.087],[9.533,47.056]]]]}},{"type":"Feature","properties":{"name":"Planken","type":null},"geometry":{"type":"MultiPolygon","coordinates":[[[[9.548,47.161],[9.567,47.161],[9.563,47.148],[9.548,47.161]]],[[[9.562,47.191],[9.552,47.176],[9.53,47.186],[9.54,47.2],[9.562,47.191]]]]}},{"type":"Feature","properties":{"name":"Eschen","type":null},"geometry":{"type":"Polygon","coordinates":[[[9.554,47.212],[9.562,47.191],[9.508,47.215],[9.52,47.225],[9.554,47.212]]]}},{"type":"Feature","properties":{"name":"Mauren","type":null},"geometry":{"type":"Polygon","coordinates":[[[9.52,47.225],[9.54,47.229],[9.554,47.212],[9.52,47.225]]]}},{"type":"Feature","properties":{"name":"Schellenberg","type":null},"geometry":{"type":"Polygon","coordinates":[[[9.534,47.251],[9.543,47.235],[9.52,47.225],[9.519,47.231],[9.534,47.251]]]}},{"type":"Feature","properties":{"name":"Ruggell","type":null},"geometry":{"type":"Polygon","coordinates":[[[9.521,47.263],[9.534,47.251],[9.52,47.225],[9.497,47.229],[9.521,47.263]]]}},{"type":"Feature","properties":{"name":"Vaduz","type":null},"geometry":{"type":"MultiPolygon","coordinates":[[[[9.568,47.088],[9.568,47.107],[9.592,47.111],[9.598,47.091],[9.568,47.088]]],[[[9.512,47.129],[9.496,47.156],[9.508,47.153],[9.505,47.169],[9.548,47.161],[9.512,47.129]]]]}},{"type":"Feature","properties":{"name":"Gamprin","type":null},"geometry":{"type":"Polygon","coordinates":[[[9.486,47.197],[9.497,47.229],[9.531,47.195],[9.5,47.192],[9.486,47.197]]]}}]}