{"type":"FeatureCollection","features":[{"type":"Feature","properties":{"name":"Addu","type":"City"},"geometry":{"type":"MultiPolygon","coordinates":[[[[73.247,-0.589],[73.245,-0.607],[73.247,-0.578],[73.247,-0.589]]],[[[73.24,-0.626],[73.227,-0.643],[73.23,-0.623],[73.24,-0.626]]],[[[73.195,-0.674],[73.196,-0.681],[73.191,-0.683],[73.195,-0.674]]],[[[73.163,-0.682],[73.173,-0.689],[73.166,-0.688],[73.163,-0.682]]],[[[73.124,-0.656],[73.127,-0.666],[73.124,-0.665],[73.124,-0.656]]],[[[73.098,-0.6],[73.112,-0.617],[73.119,-0.641],[73.095,-0.605],[73.091,-0.586],[73.105,-0.579],[73.098,-0.6]]]]}},{"type":"Feature","properties":{"name":"Gnaviyani","type":"Atoll"},"geometry":{"type":"Polygon","coordinates":[[[73.435,-0.294],[73.443,-0.293],[73.445,-0.304],[73.435,-0.294]]]}},{"type":"Feature","properties":{"name":"Gaafu Dhaalu","type":"Atoll"},"geometry":{"type":"MultiPolygon","coordinates":[[[[73.371,0.286],[73.379,0.285],[73.37,0.28],[73.371,0.286]]],[[[73.209,0.24],[73.217,0.238],[73.211,0.232],[73.209,0.24]]],[[[73.095,0.228],[73.104,0.22],[73.103,0.213],[73.099,0.216],[73.095,0.228]]],[[[73.036,0.261],[73.037,0.27],[73.04,0.259],[73.036,0.261]]],[[[72.981,0.302],[72.988,0.302],[72.986,0.3],[72.981,0.302]]],[[[72.958,0.397],[72.958,0.403],[72.961,0.394],[72.958,0.397]]],[[[72.941,0.496],[72.941,0.487],[72.937,0.494],[72.941,0.496]]]]}},{"type":"Feature","properties":{"name":"Gaafu Alifu","type":"Atoll"},"geometry":{"type":"MultiPolygon","coordinates":[[[[73.507,0.388],[73.513,0.388],[73.509,0.381],[73.507,0.388]]],[[[73.49,0.503],[73.492,0.508],[73.495,0.499],[73.49,0.503]]],[[[73.384,0.639],[73.387,0.635],[73.385,0.636],[73.384,0.639]]],[[[73.369,0.76],[73.372,0.757],[73.37,0.757],[73.369,0.76]]],[[[73.35,0.844],[73.353,0.842],[73.351,0.841],[73.35,0.844]]]]}},{"type":"Feature","properties":{"name":"Alifu Dhaalu","type":"Atoll"},"geometry":{"type":"MultiPolygon","coordinates":[[[[72.949,3.729],[72.956,3.729],[72.952,3.727],[72.949,3.729]]],[[[72.942,3.767],[72.949,3.767],[72.945,3.765],[72.942,3.767]]],[[[72.941,3.832],[72.948,3.832],[72.944,3.83],[72.941,3.832]]],[[[72.938,3.614],[72.946,3.614],[72.942,3.612],[72.938,3.614]]],[[[72.92,3.552],[72.912,3.542],[72.912,3.542],[72.92,3.552]]],[[[72.828,3.505],[72.835,3.505],[72.831,3.504],[72.828,3.505]]],[[[72.791,3.511],[72.795,3.515],[72.799,3.512],[72.791,3.511]]],[[[72.69,3.718],[72.697,3.719],[72.695,3.715],[72.69,3.718]]]]}},{"type":"Feature","properties":{"name":"Kaafu","type":"Atoll"},"geometry":{"type":"MultiPolygon","coordinates":[[[[73.703,4.435],[73.701,4.432],[73.697,4.431],[73.703,4.435]]],[[[73.7,4.452],[73.703,4.453],[73.7,4.449],[73.7,4.452]]],[[[73.664,4.388],[73.668,4.387],[73.666,4.386],[73.664,4.388]]],[[[73.632,4.368],[73.637,4.364],[73.634,4.365],[73.632,4.368]]],[[[73.608,4.358],[73.612,4.357],[73.61,4.356],[73.608,4.358]]],[[[73.596,4.342],[73.592,4.34],[73.589,4.341],[73.596,4.342]]],[[[73.55,4.615],[73.554,4.614],[73.552,4.613],[73.55,4.615]]],[[[73.502,4.101],[73.508,4.093],[73.508,4.093],[73.502,4.101]]],[[[73.487,4.718],[73.491,4.717],[73.488,4.716],[73.487,4.718]]],[[[73.469,3.937],[73.47,3.935],[73.468,3.934],[73.469,3.937]]],[[[73.447,4.971],[73.437,4.97],[73.441,4.975],[73.447,4.971]]],[[[73.444,3.921],[73.443,3.919],[73.438,3.916],[73.444,3.921]]],[[[73.432,3.847],[73.435,3.845],[73.432,3.842],[73.432,3.847]]],[[[73.423,4.118],[73.421,4.116],[73.419,4.116],[73.423,4.118]]],[[[73.401,4.63],[73.405,4.628],[73.403,4.627],[73.401,4.63]]],[[[73.377,4.474],[73.377,4.465],[73.374,4.467],[73.377,4.474]]],[[[73.341,3.943],[73.345,3.945],[73.341,3.942],[73.341,3.943]]]]}},{"type":"Feature","properties":{"name":"Alifu Alifu","type":"Atoll"},"geometry":{"type":"MultiPolygon","coordinates":[[[[72.973,4.26],[72.976,4.262],[72.976,4.26],[72.973,4.26]]],[[[72.945,4.266],[72.959,4.263],[72.954,4.261],[72.945,4.266]]],[[[72.957,4.438],[72.956,4.422],[72.947,4.423],[72.943,4.432],[72.957,4.438]]],[[[72.699,3.999],[72.707,3.998],[72.705,3.996],[72.699,3.999]]]]}},{"type":"Feature","properties":{"name":"Baa","type":"Atoll"},"geometry":{"type":"MultiPolygon","coordinates":[[[[73.132,5.245],[73.132,5.242],[73.128,5.241],[73.132,5.245]]],[[[73.109,5.297],[73.113,5.298],[73.109,5.295],[73.109,5.297]]],[[[73.107,5.171],[73.104,5.173],[73.111,5.17],[73.107,5.171]]],[[[73.091,5.161],[73.091,5.159],[73.088,5.158],[73.091,5.161]]],[[[73.045,5.129],[73.051,5.127],[73.048,5.126],[73.045,5.129]]],[[[73.045,5.122],[73.043,5.119],[73.041,5.118],[73.045,5.122]]],[[[72.973,4.894],[72.979,4.895],[72.969,4.881],[72.973,4.894]]],[[[72.953,5.353],[72.952,5.35],[72.95,5.349],[72.953,5.353]]],[[[72.928,5.037],[72.927,5.034],[72.924,5.033],[72.928,5.037]]],[[[72.917,4.899],[72.923,4.899],[72.921,4.898],[72.917,4.899]]],[[[72.91,5.033],[72.909,5.031],[72.909,5.031],[72.91,5.033]]],[[[72.86,5.238],[72.859,5.236],[72.857,5.234],[72.86,5.238]]]]}},{"type":"Feature","properties":{"name":"Lhaviyani","type":"Atoll"},"geometry":{"type":"MultiPolygon","coordinates":[[[[73.643,5.344],[73.64,5.342],[73.64,5.342],[73.643,5.344]]],[[[73.628,5.413],[73.637,5.403],[73.632,5.386],[73.628,5.413]]],[[[73.63,5.333],[73.627,5.331],[73.623,5.332],[73.63,5.333]]],[[[73.594,5.283],[73.583,5.276],[73.57,5.277],[73.582,5.282],[73.594,5.283]]],[[[73.537,5.451],[73.535,5.45],[73.531,5.45],[73.537,5.451]]],[[[73.5,5.247],[73.497,5.245],[73.494,5.246],[73.5,5.247]]],[[[73.467,5.308],[73.47,5.308],[73.464,5.307],[73.467,5.308]]],[[[73.462,5.544],[73.459,5.542],[73.456,5.543],[73.462,5.544]]],[[[73.396,5.357],[73.399,5.36],[73.401,5.356],[73.396,5.357]]],[[[73.363,5.463],[73.363,5.459],[73.361,5.458],[73.363,5.463]]],[[[73.348,5.429],[73.345,5.427],[73.345,5.427],[73.348,5.429]]],[[[73.319,5.363],[73.325,5.367],[73.33,5.367],[73.319,5.363]]]]}},{"type":"Feature","properties":{"name":"Raa","type":"Atoll"},"geometry":{"type":"MultiPolygon","coordinates":[[[[73.013,5.616],[73.016,5.612],[73.014,5.612],[73.013,5.616]]],[[[73.01,5.491],[73.013,5.487],[73.011,5.487],[73.01,5.491]]],[[[73.009,5.675],[73.012,5.672],[73.01,5.671],[73.009,5.675]]],[[[72.999,5.461],[73.003,5.458],[73.001,5.456],[72.999,5.461]]],[[[72.999,5.712],[73.002,5.707],[73.0,5.707],[72.999,5.712]]],[[[72.987,5.771],[72.986,5.766],[72.983,5.763],[72.987,5.771]]],[[[72.971,5.81],[72.975,5.805],[72.975,5.804],[72.971,5.81]]],[[[72.962,5.857],[72.964,5.864],[72.966,5.85],[72.962,5.857]]],[[[72.937,5.466],[72.94,5.462],[72.938,5.461],[72.937,5.466]]],[[[72.932,5.969],[72.93,5.957],[72.926,5.963],[72.932,5.969]]],[[[72.91,5.982],[72.913,5.976],[72.91,5.978],[72.91,5.982]]],[[[72.878,5.492],[72.881,5.488],[72.879,5.488],[72.878,5.492]]]]}},{"type":"Feature","properties":{"name":"Shaviyani","type":"Atoll"},"geometry":{"type":"MultiPolygon","coordinates":[[[[73.266,6.185],[73.271,6.189],[73.268,6.179],[73.266,6.185]]],[[[73.265,6.154],[73.267,6.151],[73.265,6.151],[73.265,6.154]]],[[[73.249,6.11],[73.252,6.111],[73.247,6.108],[73.249,6.11]]],[[[73.251,6.083],[73.249,6.08],[73.245,6.08],[73.251,6.083]]],[[[73.236,6.232],[73.244,6.232],[73.24,6.229],[73.236,6.232]]],[[[73.22,6.132],[73.219,6.129],[73.215,6.129],[73.22,6.132]]],[[[73.216,6.171],[73.219,6.172],[73.214,6.169],[73.216,6.171]]],[[[73.209,6.287],[73.213,6.289],[73.209,6.286],[73.209,6.287]]],[[[73.194,6.322],[73.202,6.322],[73.201,6.318],[73.194,6.322]]],[[[73.181,6.35],[73.182,6.346],[73.18,6.347],[73.181,6.35]]],[[[73.128,6.287],[73.126,6.284],[73.123,6.283],[73.128,6.287]]],[[[73.121,6.331],[73.124,6.332],[73.119,6.329],[73.121,6.331]]],[[[73.083,6.309],[73.081,6.306],[73.078,6.305],[73.083,6.309]]],[[[73.049,6.441],[73.046,6.436],[73.043,6.434],[73.049,6.441]]],[[[73.03,6.221],[73.029,6.219],[73.029,6.219],[73.03,6.221]]],[[[73.019,6.364],[73.025,6.365],[73.024,6.363],[73.019,6.364]]],[[[72.948,6.344],[72.954,6.346],[72.953,6.343],[72.948,6.344]]],[[[72.902,6.435],[72.907,6.436],[72.907,6.434],[72.902,6.435]]],[[[72.891,6.448],[72.897,6.448],[72.896,6.446],[72.891,6.448]]]]}},{"type":"Feature","properties":{"name":"Laamu","type":"Atoll"},"geometry":{"type":"MultiPolygon","coordinates":[[[[73.562,2.095],[73.585,2.11],[73.585,2.11],[73.562,2.095]]],[[[73.551,2.078],[73.551,2.073],[73.551,2.072],[73.551,2.078]]],[[[73.55,1.925],[73.549,1.911],[73.541,1.892],[73.55,1.925]]],[[[73.548,1.968],[73.55,1.966],[73.55,1.966],[73.548,1.968]]],[[[73.542,2.025],[73.543,2.022],[73.54,2.023],[73.542,2.025]]],[[[73.532,1.863],[73.533,1.862],[73.532,1.86],[73.532,1.863]]],[[[73.518,1.843],[73.499,1.828],[73.498,1.829],[73.502,1.835],[73.518,1.843]]],[[[73.453,1.827],[73.464,1.826],[73.457,1.82],[73.453,1.827]]],[[[73.395,1.799],[73.402,1.796],[73.394,1.795],[73.395,1.799]]],[[[73.387,2.033],[73.387,2.029],[73.386,2.03],[73.387,2.033]]],[[[73.368,1.783],[73.365,1.791],[73.376,1.789],[73.368,1.783]]],[[[73.315,1.985],[73.323,1.986],[73.318,1.983],[73.315,1.985]]],[[[73.252,1.892],[73.244,1.889],[73.244,1.894],[73.252,1.892]]]]}},{"type":"Feature","properties":{"name":"Thaa","type":"Atoll"},"geometry":{"type":"MultiPolygon","coordinates":[[[[73.354,2.429],[73.366,2.412],[73.363,2.385],[73.354,2.429]]],[[[73.344,2.348],[73.344,2.344],[73.342,2.342],[73.344,2.348]]],[[[73.312,2.499],[73.315,2.494],[73.315,2.494],[73.312,2.499]]],[[[73.146,2.553],[73.144,2.55],[73.141,2.55],[73.146,2.553]]],[[[73.115,2.192],[73.117,2.198],[73.121,2.192],[73.115,2.192]]],[[[73.099,2.185],[73.102,2.181],[73.099,2.182],[73.099,2.185]]],[[[73.038,2.165],[73.041,2.165],[73.038,2.165],[73.038,2.165]]],[[[72.948,2.275],[72.946,2.272],[72.943,2.273],[72.948,2.275]]],[[[72.926,2.327],[72.927,2.316],[72.923,2.32],[72.926,2.327]]]]}},{"type":"Feature","properties":{"name":"Dhaalu","type":"Atoll"},"geometry":{"type":"MultiPolygon","coordinates":[[[[73.022,2.742],[73.032,2.745],[73.028,2.738],[73.022,2.742]]],[[[73.008,2.953],[73.015,2.947],[73.009,2.946],[73.008,2.953]]],[[[72.901,2.676],[72.906,2.68],[72.904,2.676],[72.901,2.676]]],[[[72.867,2.689],[72.874,2.684],[72.874,2.684],[72.867,2.689]]],[[[72.865,2.961],[72.868,2.961],[72.865,2.958],[72.865,2.961]]]]}},{"type":"Feature","properties":{"name":"Meemu","type":"Atoll"},"geometry":{"type":"MultiPolygon","coordinates":[[[[73.613,3.107],[73.613,3.103],[73.608,3.1],[73.613,3.107]]],[[[73.578,2.957],[73.586,2.962],[73.577,2.951],[73.578,2.957]]],[[[73.561,2.948],[73.564,2.955],[73.562,2.946],[73.561,2.948]]],[[[73.549,2.889],[73.551,2.891],[73.549,2.888],[73.549,2.889]]],[[[73.399,2.786],[73.391,2.775],[73.392,2.781],[73.399,2.786]]],[[[73.357,2.9],[73.363,2.898],[73.361,2.898],[73.357,2.9]]],[[[73.348,2.775],[73.354,2.772],[73.351,2.771],[73.348,2.775]]]]}},{"type":"Feature","properties":{"name":"Faafu","type":"Atoll"},"geometry":{"type":"MultiPolygon","coordinates":[[[[73.04,3.2],[73.047,3.202],[73.041,3.198],[73.04,3.2]]],[[[73.029,3.247],[73.036,3.248],[73.032,3.246],[73.029,3.247]]],[[[72.975,3.104],[72.982,3.105],[72.978,3.103],[72.975,3.104]]],[[[72.899,3.078],[72.906,3.08],[72.9,3.077],[72.899,3.078]]],[[[72.831,3.307],[72.838,3.309],[72.831,3.306],[72.831,3.307]]]]}},{"type":"Feature","properties":{"name":"Vaavu","type":"Atoll"},"geometry":{"type":"MultiPolygon","coordinates":[[[[73.749,3.448],[73.748,3.451],[73.753,3.446],[73.749,3.448]]],[[[73.516,3.361],[73.519,3.359],[73.519,3.356],[73.516,3.361]]],[[[73.506,3.498],[73.508,3.497],[73.509,3.496],[73.506,3.498]]]]}},{"type":"Feature","properties":{"name":"Malé","type":"Capital"},"geometry":{"type":"Polygon","coordinates":[[[73.546,4.243],[73.538,4.183],[73.511,4.162],[73.431,4.185],[73.512,4.186],[73.546,4.243]]]}},{"type":"Feature","properties":{"name":"Noonu","type":"Atoll"},"geometry":{"type":"MultiPolygon","coordinates":[[[[73.443,5.841],[73.434,5.831],[73.433,5.831],[73.443,5.841]]],[[[73.423,5.907],[73.428,5.904],[73.426,5.903],[73.423,5.907]]],[[[73.39,5.97],[73.395,5.958],[73.385,5.965],[73.39,5.97]]],[[[73.393,5.738],[73.381,5.715],[73.38,5.715],[73.383,5.722],[73.393,5.738]]],[[[73.377,5.787],[73.385,5.787],[73.381,5.784],[73.377,5.787]]]]}},{"type":"Feature","properties":{"name":"Haa Dhaalu","type":"Atoll"},"geometry":{"type":"MultiPolygon","coordinates":[[[[73.16,6.787],[73.153,6.749],[73.132,6.725],[73.136,6.741],[73.16,6.787]]],[[[73.097,6.706],[73.1,6.7],[73.096,6.698],[73.097,6.706]]],[[[73.07,6.668],[73.062,6.661],[73.062,6.667],[73.07,6.668]]],[[[73.039,6.623],[73.041,6.617],[73.038,6.618],[73.039,6.623]]],[[[73.032,6.757],[73.037,6.753],[73.035,6.753],[73.032,6.757]]],[[[73.026,6.579],[73.03,6.576],[73.028,6.575],[73.026,6.579]]],[[[72.957,6.56],[72.958,6.554],[72.956,6.555],[72.957,6.56]]],[[[72.923,6.56],[72.929,6.561],[72.928,6.559],[72.923,6.56]]],[[[72.913,6.765],[72.914,6.759],[72.912,6.76],[72.913,6.765]]],[[[72.686,6.412],[72.687,6.407],[72.686,6.406],[72.686,6.412]]]]}},{"type":"Feature","properties":{"name":"Haa Alifu","type":"Atoll"},"geometry":{"type":"MultiPolygon","coordinates":[[[[73.214,6.919],[73.213,6.905],[73.204,6.885],[73.202,6.902],[73.214,6.919]]],[[[73.192,6.968],[73.195,6.951],[73.193,6.951],[73.192,6.968]]],[[[73.182,6.831],[73.197,6.828],[73.184,6.821],[73.182,6.831]]],[[[73.139,6.844],[73.14,6.839],[73.138,6.84],[73.139,6.844]]],[[[73.102,6.894],[73.107,6.89],[73.104,6.89],[73.102,6.894]]],[[[73.093,6.853],[73.094,6.848],[73.092,6.848],[73.093,6.853]]],[[[72.99,6.842],[72.992,6.837],[72.989,6.838],[72.99,6.842]]],[[[72.977,7.019],[72.98,7.028],[72.981,7.014],[72.977,7.019]]],[[[72.972,6.85],[72.976,6.847],[72.974,6.846],[72.972,6.85]]],[[[72.959,6.862],[72.961,6.856],[72.958,6.857],[72.959,6.862]]],[[[72.948,7.054],[72.95,7.056],[72.948,7.051],[72.948,7.054]]],[[[72.926,6.957],[72.926,6.954],[72.925,6.952],[72.926,6.957]]],[[[72.907,7.091],[72.913,7.093],[72.912,7.083],[72.907,7.091]]],[[[72.892,6.991],[72.892,6.988],[72.89,6.985],[72.892,6.991]]],[[[72.884,7.107],[72.885,7.104],[72.882,7.102],[72.884,7.107]]]]}}]}