{"type":"FeatureCollection","features":[{"type":"Feature","properties":{"name":"Kalkara","type":null},"geometry":{"type":"Polygon","coordinates":[[[14.525,35.898],[14.548,35.89],[14.529,35.882],[14.525,35.898]]]}},{"type":"Feature","properties":{"name":"Valletta","type":null},"geometry":{"type":"Polygon","coordinates":[[[14.507,35.899],[14.525,35.898],[14.502,35.895],[14.507,35.899]]]}},{"type":"Feature","properties":{"name":"Sliema","type":null},"geometry":{"type":"Polygon","coordinates":[[[14.51,35.925],[14.514,35.901],[14.507,35.899],[14.493,35.907],[14.51,35.925]]]}},{"type":"Feature","properties":{"name":"San Giljan","type":null},"geometry":{"type":"Polygon","coordinates":[[[14.484,35.923],[14.51,35.925],[14.489,35.905],[14.484,35.923]]]}},{"type":"Feature","properties":{"name":"Pembroke","type":null},"geometry":{"type":"Polygon","coordinates":[[[14.465,35.947],[14.479,35.937],[14.501,35.93],[14.472,35.92],[14.465,35.947]]]}},{"type":"Feature","properties":{"name":"Naxxar","type":null},"geometry":{"type":"Polygon","coordinates":[[[14.438,35.963],[14.465,35.947],[14.441,35.903],[14.42,35.934],[14.438,35.963]]]}},{"type":"Feature","properties":{"name":"San Pawl il-Bahar","type":null},"geometry":{"type":"Polygon","coordinates":[[[14.406,35.968],[14.438,35.963],[14.423,35.917],[14.41,35.925],[14.394,35.923],[14.403,35.908],[14.372,35.941],[14.406,35.968]]]}},{"type":"Feature","properties":{"name":"Mellieħa","type":null},"geometry":{"type":"Polygon","coordinates":[[[14.341,35.926],[14.322,35.973],[14.335,35.982],[14.377,35.994],[14.349,35.973],[14.406,35.968],[14.341,35.926]]]}},{"type":"Feature","properties":{"name":"Mġarr","type":null},"geometry":{"type":"Polygon","coordinates":[[[14.343,35.9],[14.341,35.926],[14.374,35.936],[14.404,35.905],[14.343,35.9]]]}},{"type":"Feature","properties":{"name":"Rabat","type":null},"geometry":{"type":"Polygon","coordinates":[[[14.413,35.86],[14.343,35.881],[14.343,35.9],[14.413,35.898],[14.396,35.887],[14.413,35.879],[14.413,35.86]]]}},{"type":"Feature","properties":{"name":"Dingli","type":null},"geometry":{"type":"Polygon","coordinates":[[[14.395,35.866],[14.382,35.843],[14.365,35.864],[14.395,35.866]]]}},{"type":"Feature","properties":{"name":"Siġġiewi","type":null},"geometry":{"type":"Polygon","coordinates":[[[14.429,35.823],[14.389,35.84],[14.399,35.86],[14.47,35.86],[14.429,35.823]]]}},{"type":"Feature","properties":{"name":"Qrendi","type":null},"geometry":{"type":"Polygon","coordinates":[[[14.454,35.816],[14.429,35.823],[14.467,35.838],[14.454,35.816]]]}},{"type":"Feature","properties":{"name":"Żurrieq","type":null},"geometry":{"type":"Polygon","coordinates":[[[14.498,35.809],[14.473,35.811],[14.454,35.816],[14.476,35.838],[14.486,35.825],[14.509,35.83],[14.498,35.809]]]}},{"type":"Feature","properties":{"name":"Birżebbuġa","type":null},"geometry":{"type":"Polygon","coordinates":[[[14.54,35.829],[14.528,35.801],[14.498,35.809],[14.525,35.84],[14.54,35.829]]]}},{"type":"Feature","properties":{"name":"Marsaxlokk","type":null},"geometry":{"type":"Polygon","coordinates":[[[14.566,35.842],[14.54,35.829],[14.525,35.845],[14.548,35.846],[14.566,35.842]]]}},{"type":"Feature","properties":{"name":"Marsaskala","type":null},"geometry":{"type":"Polygon","coordinates":[[[14.561,35.873],[14.567,35.846],[14.566,35.842],[14.543,35.861],[14.561,35.873]]]}},{"type":"Feature","properties":{"name":"Żabbar","type":null},"geometry":{"type":"Polygon","coordinates":[[[14.556,35.879],[14.549,35.863],[14.525,35.866],[14.529,35.882],[14.556,35.879]]]}},{"type":"Feature","properties":{"name":"Xgħajra","type":null},"geometry":{"type":"Polygon","coordinates":[[[14.548,35.89],[14.556,35.879],[14.54,35.883],[14.548,35.89]]]}},{"type":"Feature","properties":{"name":"San Lawrenz","type":null},"geometry":{"type":"Polygon","coordinates":[[[14.212,36.052],[14.185,36.035],[14.184,36.065],[14.212,36.052]]]}},{"type":"Feature","properties":{"name":"Kerċem","type":null},"geometry":{"type":"Polygon","coordinates":[[[14.235,36.032],[14.195,36.029],[14.212,36.052],[14.229,36.048],[14.235,36.032]]]}},{"type":"Feature","properties":{"name":"Munxar","type":null},"geometry":{"type":"Polygon","coordinates":[[[14.235,36.032],[14.221,36.019],[14.21,36.023],[14.235,36.032]]]}},{"type":"Feature","properties":{"name":"Sannat","type":null},"geometry":{"type":"Polygon","coordinates":[[[14.274,36.016],[14.26,36.013],[14.233,36.017],[14.24,36.027],[14.274,36.016]]]}},{"type":"Feature","properties":{"name":"Għajnsielem","type":null},"geometry":{"type":"Polygon","coordinates":[[[14.3,36.025],[14.278,36.017],[14.272,36.019],[14.281,36.033],[14.3,36.025]]]}},{"type":"Feature","properties":{"name":"Qala","type":null},"geometry":{"type":"Polygon","coordinates":[[[14.32,36.046],[14.334,36.034],[14.3,36.025],[14.297,36.03],[14.32,36.046]]]}},{"type":"Feature","properties":{"name":"Nadur","type":null},"geometry":{"type":"Polygon","coordinates":[[[14.289,36.064],[14.32,36.046],[14.305,36.031],[14.281,36.033],[14.289,36.064]]]}},{"type":"Feature","properties":{"name":"Xagħra","type":null},"geometry":{"type":"Polygon","coordinates":[[[14.272,36.071],[14.289,36.064],[14.281,36.033],[14.251,36.046],[14.272,36.071]]]}},{"type":"Feature","properties":{"name":"Żebbuġ","type":null},"geometry":{"type":"Polygon","coordinates":[[[14.234,36.073],[14.257,36.076],[14.272,36.071],[14.245,36.046],[14.234,36.073]]]}},{"type":"Feature","properties":{"name":"Għasri","type":null},"geometry":{"type":"Polygon","coordinates":[[[14.213,36.07],[14.234,36.073],[14.239,36.049],[14.222,36.049],[14.213,36.07]]]}},{"type":"Feature","properties":{"name":"Għarb","type":null},"geometry":{"type":"Polygon","coordinates":[[[14.191,36.059],[14.213,36.07],[14.219,36.051],[14.191,36.059]]]}},{"type":"Feature","properties":{"name":"Victoria","type":null},"geometry":{"type":"Polygon","coordinates":[[[14.245,36.031],[14.23,36.049],[14.256,36.04],[14.245,36.031]]]}},{"type":"Feature","properties":{"name":"Fontana, Gozo","type":null},"geometry":{"type":"Polygon","coordinates":[[[14.241,36.028],[14.239,36.038],[14.245,36.031],[14.241,36.028]]]}},{"type":"Feature","properties":{"name":"Xewkija","type":null},"geometry":{"type":"Polygon","coordinates":[[[14.24,36.027],[14.255,36.037],[14.281,36.033],[14.272,36.019],[14.24,36.027]]]}},{"type":"Feature","properties":{"name":"Mosta","type":null},"geometry":{"type":"Polygon","coordinates":[[[14.404,35.905],[14.397,35.924],[14.43,35.92],[14.435,35.895],[14.404,35.905]]]}},{"type":"Feature","properties":{"name":"Lija","type":null},"geometry":{"type":"Polygon","coordinates":[[[14.446,35.895],[14.435,35.906],[14.449,35.901],[14.446,35.895]]]}},{"type":"Feature","properties":{"name":"Attard","type":null},"geometry":{"type":"Polygon","coordinates":[[[14.423,35.9],[14.446,35.895],[14.457,35.886],[14.413,35.879],[14.423,35.9]]]}},{"type":"Feature","properties":{"name":"Mtarfa","type":null},"geometry":{"type":"Polygon","coordinates":[[[14.411,35.884],[14.396,35.887],[14.412,35.891],[14.411,35.884]]]}},{"type":"Feature","properties":{"name":"Mdina","type":null},"geometry":{"type":"Polygon","coordinates":[[[14.405,35.88],[14.411,35.884],[14.413,35.879],[14.405,35.88]]]}},{"type":"Feature","properties":{"name":"Żebbuġ","type":null},"geometry":{"type":"Polygon","coordinates":[[[14.416,35.864],[14.413,35.879],[14.455,35.883],[14.463,35.863],[14.416,35.864]]]}},{"type":"Feature","properties":{"name":"Qormi","type":null},"geometry":{"type":"Polygon","coordinates":[[[14.463,35.863],[14.452,35.878],[14.458,35.889],[14.484,35.876],[14.463,35.863]]]}},{"type":"Feature","properties":{"name":"Swieqi","type":null},"geometry":{"type":"Polygon","coordinates":[[[14.455,35.929],[14.484,35.92],[14.486,35.915],[14.464,35.912],[14.455,35.929]]]}},{"type":"Feature","properties":{"name":"Għargħur","type":null},"geometry":{"type":"Polygon","coordinates":[[[14.464,35.912],[14.448,35.926],[14.455,35.929],[14.464,35.912]]]}},{"type":"Feature","properties":{"name":"San Ġwann","type":null},"geometry":{"type":"Polygon","coordinates":[[[14.464,35.912],[14.486,35.9],[14.463,35.901],[14.464,35.912]]]}},{"type":"Feature","properties":{"name":"Iklin","type":null},"geometry":{"type":"Polygon","coordinates":[[[14.449,35.901],[14.462,35.909],[14.463,35.901],[14.449,35.901]]]}},{"type":"Feature","properties":{"name":"Birkirkara","type":null},"geometry":{"type":"Polygon","coordinates":[[[14.464,35.885],[14.463,35.901],[14.477,35.894],[14.464,35.885]]]}},{"type":"Feature","properties":{"name":"Balzan","type":null},"geometry":{"type":"Polygon","coordinates":[[[14.446,35.895],[14.457,35.896],[14.458,35.889],[14.446,35.895]]]}},{"type":"Feature","properties":{"name":"Santa Venera","type":null},"geometry":{"type":"Polygon","coordinates":[[[14.487,35.886],[14.47,35.884],[14.472,35.891],[14.487,35.886]]]}},{"type":"Feature","properties":{"name":"Ħamrun","type":null},"geometry":{"type":"Polygon","coordinates":[[[14.49,35.876],[14.481,35.884],[14.498,35.886],[14.49,35.876]]]}},{"type":"Feature","properties":{"name":"Marsa","type":null},"geometry":{"type":"Polygon","coordinates":[[[14.48,35.872],[14.497,35.884],[14.501,35.88],[14.493,35.863],[14.48,35.872]]]}},{"type":"Feature","properties":{"name":"Luqa","type":null},"geometry":{"type":"Polygon","coordinates":[[[14.457,35.847],[14.48,35.872],[14.493,35.863],[14.509,35.83],[14.457,35.847]]]}},{"type":"Feature","properties":{"name":"Mqabba","type":null},"geometry":{"type":"Polygon","coordinates":[[[14.451,35.839],[14.469,35.849],[14.48,35.844],[14.476,35.838],[14.451,35.839]]]}},{"type":"Feature","properties":{"name":"Kirkop","type":null},"geometry":{"type":"Polygon","coordinates":[[[14.49,35.84],[14.476,35.838],[14.482,35.848],[14.49,35.84]]]}},{"type":"Feature","properties":{"name":"Safi","type":null},"geometry":{"type":"Polygon","coordinates":[[[14.494,35.829],[14.49,35.84],[14.504,35.829],[14.494,35.829]]]}},{"type":"Feature","properties":{"name":"Għaxaq","type":null},"geometry":{"type":"Polygon","coordinates":[[[14.525,35.84],[14.513,35.83],[14.503,35.837],[14.511,35.857],[14.525,35.84]]]}},{"type":"Feature","properties":{"name":"Żejtun","type":null},"geometry":{"type":"Polygon","coordinates":[[[14.545,35.843],[14.525,35.845],[14.511,35.857],[14.543,35.861],[14.545,35.843]]]}},{"type":"Feature","properties":{"name":"Fgura","type":null},"geometry":{"type":"Polygon","coordinates":[[[14.527,35.874],[14.516,35.86],[14.508,35.869],[14.527,35.874]]]}},{"type":"Feature","properties":{"name":"Tarxien","type":null},"geometry":{"type":"Polygon","coordinates":[[[14.508,35.869],[14.51,35.855],[14.495,35.858],[14.508,35.869]]]}},{"type":"Feature","properties":{"name":"Santa Luċija","type":null},"geometry":{"type":"Polygon","coordinates":[[[14.495,35.858],[14.51,35.85],[14.494,35.851],[14.495,35.858]]]}},{"type":"Feature","properties":{"name":"Gudja","type":null},"geometry":{"type":"Polygon","coordinates":[[[14.51,35.85],[14.503,35.837],[14.497,35.841],[14.494,35.851],[14.51,35.85]]]}},{"type":"Feature","properties":{"name":"Paola","type":null},"geometry":{"type":"Polygon","coordinates":[[[14.508,35.885],[14.503,35.863],[14.495,35.858],[14.508,35.885]]]}},{"type":"Feature","properties":{"name":"Gżira","type":null},"geometry":{"type":"Polygon","coordinates":[[[14.493,35.907],[14.502,35.895],[14.486,35.9],[14.493,35.907]]]}},{"type":"Feature","properties":{"name":"Floriana","type":null},"geometry":{"type":"Polygon","coordinates":[[[14.501,35.88],[14.502,35.895],[14.511,35.889],[14.501,35.88]]]}},{"type":"Feature","properties":{"name":"Ta' Xbiex","type":null},"geometry":{"type":"Polygon","coordinates":[[[14.498,35.897],[14.489,35.892],[14.489,35.897],[14.498,35.897]]]}},{"type":"Feature","properties":{"name":"Isla","type":null},"geometry":{"type":"Polygon","coordinates":[[[14.514,35.88],[14.515,35.891],[14.521,35.887],[14.514,35.88]]]}},{"type":"Feature","properties":{"name":"Cospicua","type":null},"geometry":{"type":"Polygon","coordinates":[[[14.521,35.887],[14.527,35.874],[14.511,35.876],[14.521,35.887]]]}},{"type":"Feature","properties":{"name":"Pietà","type":null},"geometry":{"type":"Polygon","coordinates":[[[14.489,35.892],[14.496,35.888],[14.487,35.886],[14.489,35.892]]]}},{"type":"Feature","properties":{"name":"Msida","type":null},"geometry":{"type":"Polygon","coordinates":[[[14.487,35.886],[14.474,35.892],[14.472,35.899],[14.486,35.9],[14.487,35.886]]]}},{"type":"Feature","properties":{"name":"Birgu","type":null},"geometry":{"type":"Polygon","coordinates":[[[14.521,35.887],[14.519,35.894],[14.529,35.882],[14.521,35.887]]]}}]}