{"type":"FeatureCollection","features":[{"type":"Feature","properties":{"name":"Anetan","type":null},"geometry":{"type":"Polygon","coordinates":[[[166.931,-0.493],[166.939,-0.49],[166.939,-0.504],[166.931,-0.493]]]}},{"type":"Feature","properties":{"name":"Ewa","type":null},"geometry":{"type":"Polygon","coordinates":[[[166.925,-0.496],[166.931,-0.493],[166.938,-0.511],[166.925,-0.496]]]}},{"type":"Feature","properties":{"name":"Baiti","type":null},"geometry":{"type":"Polygon","coordinates":[[[166.918,-0.498],[166.925,-0.496],[166.937,-0.517],[166.918,-0.498]]]}},{"type":"Feature","properties":{"name":"Uaboe","type":null},"geometry":{"type":"Polygon","coordinates":[[[166.913,-0.5],[166.918,-0.498],[166.937,-0.52],[166.913,-0.5]]]}},{"type":"Feature","properties":{"name":"Nibok","type":null},"geometry":{"type":"Polygon","coordinates":[[[166.92,-0.521],[166.913,-0.5],[166.936,-0.525],[166.92,-0.521]]]}},{"type":"Feature","properties":{"name":"Denigomodu","type":null},"geometry":{"type":"Polygon","coordinates":[[[166.917,-0.524],[166.91,-0.512],[166.92,-0.521],[166.917,-0.524]]]}},{"type":"Feature","properties":{"name":"Aiwo","type":null},"geometry":{"type":"Polygon","coordinates":[[[166.918,-0.535],[166.907,-0.525],[166.917,-0.524],[166.918,-0.535]]]}},{"type":"Feature","properties":{"name":"Boe","type":null},"geometry":{"type":"Polygon","coordinates":[[[166.92,-0.539],[166.912,-0.537],[166.918,-0.535],[166.92,-0.539]]]}},{"type":"Feature","properties":{"name":"Yaren","type":null},"geometry":{"type":"Polygon","coordinates":[[[166.933,-0.551],[166.916,-0.548],[166.925,-0.534],[166.933,-0.551]]]}},{"type":"Feature","properties":{"name":"Meneng","type":null},"geometry":{"type":"Polygon","coordinates":[[[166.953,-0.533],[166.939,-0.552],[166.925,-0.534],[166.935,-0.53],[166.953,-0.533]]]}},{"type":"Feature","properties":{"name":"Anibare","type":null},"geometry":{"type":"Polygon","coordinates":[[[166.957,-0.511],[166.953,-0.533],[166.935,-0.53],[166.939,-0.504],[166.957,-0.511]]]}},{"type":"Feature","properties":{"name":"Ijuw","type":null},"geometry":{"type":"Polygon","coordinates":[[[166.956,-0.498],[166.957,-0.511],[166.939,-0.504],[166.956,-0.498]]]}},{"type":"Feature","properties":{"name":"Anabar","type":null},"geometry":{"type":"Polygon","coordinates":[[[166.939,-0.49],[166.956,-0.498],[166.939,-0.504],[166.939,-0.49]]]}},{"type":"Feature","properties":{"name":"Buada","type":null},"geometry":{"type":"Polygon","coordinates":[[[166.92,-0.521],[166.935,-0.53],[166.92,-0.539],[166.92,-0.521]]]}}]}