{"type":"FeatureCollection","features":[{"type":"Feature","properties":{"name":"Pitcairn Islands","type":null},"geometry":{"type":"MultiPolygon","coordinates":[[[[-124.781,-24.667],[-124.797,-24.667],[-124.778,-24.673],[-124.781,-24.667]]],[[[-128.33,-24.324],[-128.304,-24.335],[-128.291,-24.366],[-128.3,-24.414],[-128.342,-24.372],[-128.35,-24.341],[-128.33,-24.324]]],[[[-130.12,-25.068],[-130.101,-25.064],[-130.086,-25.075],[-130.105,-25.077],[-130.12,-25.068]]],[[[-130.753,-23.93],[-130.742,-23.928],[-130.751,-23.935],[-130.753,-23.93]]]]}}]}