{"type":"FeatureCollection","features":[{"type":"Feature","properties":{"name":"Spratly Islands","type":null},"geometry":{"type":"MultiPolygon","coordinates":[[[[115.845,10.831],[115.834,10.824],[115.83,10.832],[115.845,10.831]]],[[[115.815,10.734],[115.833,10.728],[115.815,10.723],[115.815,10.734]]],[[[115.367,10.237],[115.366,10.239],[115.368,10.239],[115.367,10.237]]],[[[115.021,11.118],[115.014,11.108],[115.01,11.116],[115.021,11.118]]],[[[114.471,10.372],[114.462,10.372],[114.467,10.378],[114.471,10.372]]],[[[114.46,10.393],[114.45,10.394],[114.455,10.397],[114.46,10.393]]],[[[114.376,9.68],[114.379,9.693],[114.381,9.692],[114.376,9.68]]],[[[114.371,10.18],[114.359,10.179],[114.363,10.187],[114.371,10.18]]],[[[114.368,10.371],[114.359,10.373],[114.36,10.379],[114.368,10.371]]],[[[114.287,11.047],[114.272,11.046],[114.283,11.051],[114.287,11.047]]],[[[114.034,10.012],[114.029,10.017],[114.04,10.019],[114.034,10.012]]]]}}]}