{"type":"FeatureCollection","features":[{"type":"Feature","properties":{"name":"South West","type":null},"geometry":{"type":"Polygon","coordinates":[[[103.847,1.272],[103.802,1.265],[103.755,1.297],[103.648,1.308],[103.645,1.338],[103.684,1.41],[103.708,1.429],[103.762,1.431],[103.758,1.39],[103.788,1.362],[103.782,1.343],[103.806,1.325],[103.81,1.294],[103.847,1.272]]]}},{"type":"Feature","properties":{"name":"Central Singapore","type":null},"geometry":{"type":"Polygon","coordinates":[[[103.898,1.305],[103.847,1.272],[103.81,1.294],[103.819,1.358],[103.843,1.378],[103.831,1.401],[103.841,1.417],[103.881,1.427],[103.909,1.413],[103.873,1.363],[103.898,1.305]]]}},{"type":"Feature","properties":{"name":"South East","type":null},"geometry":{"type":"Polygon","coordinates":[[[103.966,1.39],[104.0,1.38],[103.992,1.355],[103.954,1.318],[103.898,1.305],[103.875,1.343],[103.877,1.373],[103.899,1.386],[103.906,1.368],[103.942,1.354],[103.966,1.39]]]}},{"type":"Feature","properties":{"name":"North East","type":null},"geometry":{"type":"Polygon","coordinates":[[[103.909,1.413],[103.966,1.39],[103.942,1.354],[103.898,1.375],[103.909,1.413]]]}},{"type":"Feature","properties":{"name":"North West","type":null},"geometry":{"type":"Polygon","coordinates":[[[103.762,1.431],[103.805,1.449],[103.881,1.427],[103.834,1.409],[103.843,1.378],[103.806,1.325],[103.758,1.39],[103.762,1.431]]]}}]}