{"type":"FeatureCollection","features":[{"type":"Feature","properties":{"name":"Somaliland","type":null},"geometry":{"type":"Polygon","coordinates":[[[48.939,11.249],[48.939,9.451],[47.979,7.997],[46.979,7.997],[43.985,9.008],[43.622,9.337],[43.548,9.336],[43.419,9.413],[43.371,9.544],[43.306,9.618],[43.249,9.652],[43.206,9.851],[43.187,9.883],[43.068,9.923],[43.04,9.95],[42.982,10.092],[42.836,10.208],[42.789,10.333],[42.766,10.452],[42.695,10.525],[42.647,10.632],[42.712,10.675],[42.738,10.76],[42.801,10.821],[42.819,10.873],[42.894,10.92],[42.924,10.999],[43.241,11.488],[43.288,11.46],[43.283,11.499],[43.376,11.392],[43.46,11.351],[43.489,11.381],[43.488,11.239],[43.529,11.187],[43.563,11.17],[43.659,10.988],[43.83,10.803],[44.098,10.589],[44.348,10.415],[44.389,10.397],[44.586,10.384],[44.751,10.428],[44.962,10.416],[44.994,10.443],[44.988,10.46],[45.157,10.541],[45.321,10.662],[45.409,10.659],[45.487,10.685],[45.573,10.758],[45.673,10.796],[45.769,10.878],[45.817,10.869],[45.856,10.824],[45.884,10.841],[45.978,10.799],[46.102,10.771],[46.238,10.792],[46.335,10.71],[46.448,10.693],[46.66,10.754],[46.866,10.872],[46.886,10.899],[47.008,10.939],[47.181,11.08],[47.386,11.18],[47.523,11.187],[47.71,11.101],[47.767,11.13],[48.13,11.137],[48.161,11.146],[48.22,11.211],[48.304,11.228],[48.343,11.275],[48.479,11.296],[48.522,11.319],[48.655,11.331],[48.889,11.251],[48.939,11.249]]]}}]}