{"type":"FeatureCollection","features":[{"type":"Feature","properties":{"name":"Providenciales and West Caicos","type":null},"geometry":{"type":"MultiPolygon","coordinates":[[[[-72.095,21.883],[-72.087,21.873],[-72.1,21.865],[-72.102,21.872],[-72.095,21.883]]],[[[-72.125,21.855],[-72.116,21.854],[-72.133,21.848],[-72.125,21.855]]],[[[-72.337,21.801],[-72.33,21.862],[-72.232,21.793],[-72.18,21.801],[-72.146,21.827],[-72.124,21.815],[-72.159,21.774],[-72.165,21.795],[-72.194,21.767],[-72.234,21.767],[-72.234,21.781],[-72.292,21.749],[-72.303,21.774],[-72.281,21.762],[-72.275,21.774],[-72.316,21.795],[-72.315,21.771],[-72.34,21.767],[-72.31,21.822],[-72.337,21.801]]],[[[-72.461,21.705],[-72.433,21.709],[-72.433,21.68],[-72.452,21.645],[-72.481,21.63],[-72.461,21.705]]]]}},{"type":"Feature","properties":{"name":"South Caicos and East Caicos","type":null},"geometry":{"type":"MultiPolygon","coordinates":[[[[-71.46,21.664],[-71.573,21.735],[-71.591,21.754],[-71.576,21.767],[-71.481,21.725],[-71.452,21.69],[-71.46,21.664]]],[[[-71.498,21.569],[-71.496,21.507],[-71.521,21.489],[-71.54,21.517],[-71.509,21.528],[-71.498,21.569]]],[[[-71.641,21.303],[-71.629,21.324],[-71.635,21.295],[-71.641,21.303]]],[[[-71.699,21.292],[-71.68,21.304],[-71.674,21.307],[-71.699,21.292]]]]}},{"type":"Feature","properties":{"name":"Middle Caicos","type":null},"geometry":{"type":"Polygon","coordinates":[[[-71.741,21.795],[-71.836,21.791],[-71.851,21.856],[-71.809,21.84],[-71.679,21.842],[-71.631,21.774],[-71.679,21.822],[-71.645,21.746],[-71.686,21.774],[-71.7,21.76],[-71.715,21.787],[-71.741,21.795]]]}},{"type":"Feature","properties":{"name":"North Caicos","type":null},"geometry":{"type":"Polygon","coordinates":[[[-72.022,21.905],[-72.036,21.939],[-72.017,21.957],[-71.911,21.948],[-71.903,21.867],[-71.889,21.846],[-71.857,21.843],[-71.895,21.832],[-71.954,21.867],[-71.948,21.942],[-71.992,21.9],[-72.022,21.905]]]}},{"type":"Feature","properties":{"name":"Grand Turk","type":null},"geometry":{"type":"Polygon","coordinates":[[[-71.138,21.514],[-71.129,21.472],[-71.145,21.432],[-71.151,21.473],[-71.138,21.514]]]}},{"type":"Feature","properties":{"name":"Salt Cay","type":null},"geometry":{"type":"Polygon","coordinates":[[[-71.21,21.341],[-71.192,21.335],[-71.214,21.311],[-71.219,21.314],[-71.21,21.341]]]}}]}