{"type":"FeatureCollection","features":[{"type":"Feature","properties":{"name":"Tuvalu","type":null},"geometry":{"type":"MultiPolygon","coordinates":[[[[179.899,-9.387],[179.906,-9.419],[179.905,-9.421],[179.899,-9.387]]],[[[179.867,-9.344],[179.873,-9.347],[179.877,-9.363],[179.867,-9.344]]],[[[179.191,-8.542],[179.204,-8.519],[179.199,-8.461],[179.218,-8.521],[179.191,-8.542]]],[[[178.691,-7.499],[178.668,-7.464],[178.665,-7.454],[178.691,-7.475],[178.691,-7.499]]],[[[178.381,-8.07],[178.375,-8.056],[178.391,-8.027],[178.381,-8.07]]],[[[177.357,-6.115],[177.34,-6.115],[177.337,-6.108],[177.357,-6.115]]],[[[177.153,-7.2],[177.152,-7.195],[177.15,-7.188],[177.153,-7.2]]],[[[176.314,-6.302],[176.319,-6.289],[176.323,-6.289],[176.322,-6.295],[176.314,-6.302]]],[[[176.135,-5.693],[176.125,-5.679],[176.148,-5.707],[176.135,-5.693]]]]}}]}