{"type":"FeatureCollection","features":[{"type":"Feature","properties":{"name":"Johnston Atoll","type":null},"geometry":{"type":"MultiPolygon","coordinates":[[[[-169.514,16.744],[-169.514,16.746],[-169.513,16.744],[-169.514,16.744]]],[[[-169.539,16.754],[-169.521,16.763],[-169.517,16.762],[-169.539,16.754]]],[[[-169.548,16.727],[-169.522,16.732],[-169.55,16.723],[-169.548,16.727]]]]}},{"type":"Feature","properties":{"name":"Jarvis Island","type":null},"geometry":{"type":"Polygon","coordinates":[[[-160.03,-0.376],[-160.009,-0.372],[-160.025,-0.389],[-160.03,-0.376]]]}},{"type":"Feature","properties":{"name":"Baker Island","type":null},"geometry":{"type":"MultiPolygon","coordinates":[[[[-176.46,0.226],[-176.459,0.219],[-176.464,0.222],[-176.46,0.226]]],[[[-176.479,0.19],[-176.477,0.197],[-176.475,0.193],[-176.479,0.19]]]]}},{"type":"Feature","properties":{"name":"Howland Island","type":null},"geometry":{"type":"Polygon","coordinates":[[[-176.636,0.79],[-176.64,0.802],[-176.639,0.807],[-176.636,0.803],[-176.636,0.79]]]}},{"type":"Feature","properties":{"name":"Wake Atoll","type":null},"geometry":{"type":"Polygon","coordinates":[[[166.619,19.282],[166.638,19.286],[166.635,19.306],[166.652,19.284],[166.619,19.282]]]}},{"type":"Feature","properties":{"name":"Midway Islands","type":null},"geometry":{"type":"MultiPolygon","coordinates":[[[[-177.335,28.204],[-177.323,28.208],[-177.321,28.206],[-177.335,28.204]]],[[[-177.358,28.214],[-177.372,28.202],[-177.39,28.198],[-177.378,28.213],[-177.358,28.214]]]]}},{"type":"Feature","properties":{"name":"Navassa Island","type":null},"geometry":{"type":"Polygon","coordinates":[[[-75.024,18.417],[-75.007,18.415],[-75.003,18.398],[-75.018,18.397],[-75.024,18.417]]]}},{"type":"Feature","properties":{"name":"Palmyra Atoll","type":null},"geometry":{"type":"Polygon","coordinates":[[[-162.061,5.887],[-162.073,5.869],[-162.094,5.875],[-162.075,5.886],[-162.104,5.889],[-162.061,5.887]]]}}]}