{"type":"FeatureCollection","features":[{"type":"Feature","properties":{"name":"Grenadines","type":"Parish"},"geometry":{"type":"MultiPolygon","coordinates":[[[[-61.188,12.856],[-61.183,12.883],[-61.175,12.882],[-61.188,12.856]]],[[[-61.194,13.037],[-61.242,12.975],[-61.277,12.988],[-61.24,12.996],[-61.249,13.016],[-61.201,13.051],[-61.194,13.037]]],[[[-61.319,12.734],[-61.328,12.699],[-61.353,12.696],[-61.334,12.709],[-61.335,12.727],[-61.319,12.734]]],[[[-61.456,12.607],[-61.427,12.592],[-61.456,12.586],[-61.456,12.607]]]]}},{"type":"Feature","properties":{"name":"Saint Andrew","type":"Parish"},"geometry":{"type":"Polygon","coordinates":[[[-61.238,13.163],[-61.271,13.187],[-61.199,13.239],[-61.199,13.205],[-61.238,13.163]]]}},{"type":"Feature","properties":{"name":"Saint George","type":"Parish"},"geometry":{"type":"Polygon","coordinates":[[[-61.136,13.198],[-61.185,13.133],[-61.238,13.163],[-61.193,13.217],[-61.136,13.198]]]}},{"type":"Feature","properties":{"name":"Charlotte","type":"Parish"},"geometry":{"type":"Polygon","coordinates":[[[-61.171,13.38],[-61.144,13.374],[-61.124,13.308],[-61.136,13.198],[-61.2,13.223],[-61.172,13.273],[-61.161,13.342],[-61.171,13.38]]]}},{"type":"Feature","properties":{"name":"Saint David","type":"Parish"},"geometry":{"type":"Polygon","coordinates":[[[-61.268,13.266],[-61.27,13.29],[-61.243,13.294],[-61.212,13.369],[-61.171,13.38],[-61.161,13.342],[-61.175,13.26],[-61.201,13.276],[-61.228,13.255],[-61.268,13.266]]]}},{"type":"Feature","properties":{"name":"Saint Patrick","type":"Parish"},"geometry":{"type":"Polygon","coordinates":[[[-61.271,13.187],[-61.268,13.266],[-61.228,13.255],[-61.201,13.276],[-61.188,13.263],[-61.199,13.239],[-61.271,13.187]]]}}]}